[{"OBJECT_NAME":"STARLINK-1582","OBJECT_ID":"2020-055S","EPOCH":"2026-03-10T00:00:02.999808","MEAN_MOTION":15.18040785,"ECCENTRICITY":8.421e-5,"INCLINATION":53.1034,"RA_OF_ASC_NODE":124.9627,"ARG_OF_PERICENTER":51.2921,"MEAN_ANOMALY":325.0096,"EPHEMERIS_TYPE":0,"CLASSIFICATION_TYPE":"U","NORAD_CAT_ID":46043,"ELEMENT_SET_NO":999,"REV_AT_EPOCH":574,"BSTAR":0.064748428,"MEAN_MOTION_DOT":0.01459793,"MEAN_MOTION_DDOT":0},{"OBJECT_NAME":"BREEZE-KM R\/B","OBJECT_ID":"2016-011B","EPOCH":"2026-03-09T13:46:31.765728","MEAN_MOTION":15.28220455,"ECCENTRICITY":0.0143188,"INCLINATION":98.6722,"RA_OF_ASC_NODE":284.67,"ARG_OF_PERICENTER":63.2473,"MEAN_ANOMALY":298.3333,"EPHEMERIS_TYPE":0,"CLASSIFICATION_TYPE":"U","NORAD_CAT_ID":41336,"ELEMENT_SET_NO":999,"REV_AT_EPOCH":55224,"BSTAR":0.00023628,"MEAN_MOTION_DOT":8.734e-5,"MEAN_MOTION_DDOT":0}]
